0 COSMOS 2063
1 20536U 90026A   13281.01268713  .00000294  00000-0  00000+0 0  4917
2 20536 066.9317 103.7446 6050185 203.7167 353.2308 01.99578868171741
0 COSMOS 2063
1 20536U 90026A   13282.01505116  .00000336  00000-0  00000+0 0  4927
2 20536 066.9328 103.6784 6050266 203.7027 353.4021 01.99579299171767
0 COSMOS 2063
1 20536U 90026A   13283.01735190  .00000386  00000-0  00000+0 0  4931
2 20536 066.9334 103.6122 6050350 203.6887 353.5301 01.99579800171789
0 COSMOS 2063
1 20536U 90026A   13284.01967106  .00000442  00000-0  00000+0 0  4940
2 20536 066.9341 103.5461 6050432 203.6747 353.6735 01.99580378171805
0 COSMOS 2063
1 20536U 90026A   13286.24782605  .00000565  00000-0  00000+0 0  4964
2 20536 066.9361 103.3992 6050589 203.6436 154.5600 01.99581989171855
0 COSMOS 2063
1 20536U 90026A   13288.74959707  .00000638  00000-0  00000+0 0  4972
2 20536 066.9373 103.2339 6050737 203.6086 152.0520 01.99584261171904
0 COSMOS 2063
1 20536U 90026A   13291.19088940  .00000634  00000-0  00000+0 0  4984
2 20536 066.9386 103.0726 6050872 203.5739 106.1160 01.99586819171945
0 COSMOS 2063
1 20536U 90026A   13294.04562505  .00000633  00000-0  00000+0 0  4995
2 20536 066.9410 102.8842 6051073 203.5336 357.2755 01.99590015172006
